[
    {
        "Altitude(m)": 607910.9921333265,
        "Argument of Periapsis(deg)": 0.0,
        "Eccentricity": 0.0,
        "Inclination(deg)": 60.0,
        "Latitude(deg)": -14.292848915647022,
        "Longitude(deg)": 58.44266857233123,
        "Mean Anomaly(deg)": -163.63639999999998,
        "RAAN(deg)": 330.0,
        "Satellite Name": "Test1 1464",
        "Satellite Number": 1464,
        "Semi-Major Axis(m)": 6980739.136638005,
        "Time(s)": 0
    },
    {
        "Altitude(m)": 608060.225075274,
        "Argument of Periapsis(deg)": 0.00010418945913296404,
        "Eccentricity": 0.0,
        "Inclination(deg)": 60.0,
        "Latitude(deg)": -14.826509903025553,
        "Longitude(deg)": 58.731278708104476,
        "Mean Anomaly(deg)": -163.01629385453822,
        "RAAN(deg)": 329.9995799508602,
        "Satellite Name": "Test1 1464",
        "Satellite Number": 1464,
        "Semi-Major Axis(m)": 6980739.136638005,
        "Time(s)": 10
    },
    {
        "Altitude(m)": 608211.8882249708,
        "Argument of Periapsis(deg)": 0.0002083789182659281,
        "Eccentricity": 0.0,
        "Inclination(deg)": 60.0,
        "Latitude(deg)": -15.359654671394637,
        "Longitude(deg)": 59.02149762669774,
        "Mean Anomaly(deg)": -162.39618770907637,
        "RAAN(deg)": 329.9991599017205,
        "Satellite Name": "Test1 1464",
        "Satellite Number": 1464,
        "Semi-Major Axis(m)": 6980739.136638005,
        "Time(s)": 20
    },
    {
        "Altitude(m)": 608365.9335012935,
        "Argument of Periapsis(deg)": 0.00031256837739889213,
        "Eccentricity": 0.0,
        "Inclination(deg)": 60.0,
        "Latitude(deg)": -15.892262011563778,
        "Longitude(deg)": 59.31339279546688,
        "Mean Anomaly(deg)": -161.77608156361455,
        "RAAN(deg)": 329.9987398525808,
        "Satellite Name": "Test1 1464",
        "Satellite Number": 1464,
        "Semi-Major Axis(m)": 6980739.136638005,
        "Time(s)": 30
    },
    {
        "Altitude(m)": 608522.3116255631,
        "Argument of Periapsis(deg)": 0.0004167578365318562,
        "Eccentricity": 0.0,
        "Inclination(deg)": 60.0,
        "Latitude(deg)": -16.424310382083604,
        "Longitude(deg)": 59.607033200768164,
        "Mean Anomaly(deg)": -161.1559754181527,
        "RAAN(deg)": 329.998319803441,
        "Satellite Name": "Test1 1464",
        "Satellite Number": 1464,
        "Semi-Major Axis(m)": 6980739.136638005,
        "Time(s)": 40
    },
    {
        "Altitude(m)": 608680.9721428766,
        "Argument of Periapsis(deg)": 0.0005209472956648203,
        "Eccentricity": 0.0,
        "Inclination(deg)": 60.0,
        "Latitude(deg)": -16.955777893226138,
        "Longitude(deg)": 59.90248838328751,
        "Mean Anomaly(deg)": -160.53586927269086,
        "RAAN(deg)": 329.9978997543013,
        "Satellite Name": "Test1 1464",
        "Satellite Number": 1464,
        "Semi-Major Axis(m)": 6980739.136638005,
        "Time(s)": 50
    },
    {
        "Altitude(m)": 608841.8634439626,
        "Argument of Periapsis(deg)": 0.0006251367547977843,
        "Eccentricity": 0.0,
        "Inclination(deg)": 60.0,
        "Latitude(deg)": -17.4866422904833,
        "Longitude(deg)": 60.19982898707991,
        "Mean Anomaly(deg)": -159.915763127229,
        "RAAN(deg)": 329.99747970516154,
        "Satellite Name": "Test1 1464",
        "Satellite Number": 1464,
        "Semi-Major Axis(m)": 6980739.136638005,
        "Time(s)": 60
    },
    {
        "Altitude(m)": 609004.9327876114,
        "Argument of Periapsis(deg)": 0.0007293262139307483,
        "Eccentricity": 0.0,
        "Inclination(deg)": 60.0,
        "Latitude(deg)": -18.01688093756168,
        "Longitude(deg)": 60.49912730947184,
        "Mean Anomaly(deg)": -159.2956569817672,
        "RAAN(deg)": 329.9970596560218,
        "Satellite Name": "Test1 1464",
        "Satellite Number": 1464,
        "Semi-Major Axis(m)": 6980739.136638005,
        "Time(s)": 70
    },
    {
        "Altitude(m)": 609170.1263236284,
        "Argument of Periapsis(deg)": 0.0008335156730637124,
        "Eccentricity": 0.0,
        "Inclination(deg)": 60.0,
        "Latitude(deg)": -18.546470798851715,
        "Longitude(deg)": 60.80045633897691,
        "Mean Anomaly(deg)": -158.67555083630535,
        "RAAN(deg)": 329.99663960688207,
        "Satellite Name": "Test1 1464",
        "Satellite Number": 1464,
        "Semi-Major Axis(m)": 6980739.136638005,
        "Time(s)": 80
    },
    {
        "Altitude(m)": 609337.3891163182,
        "Argument of Periapsis(deg)": 0.0009377051321966765,
        "Eccentricity": 0.0,
        "Inclination(deg)": 60.0,
        "Latitude(deg)": -19.075388421342982,
        "Longitude(deg)": 61.10389030699122,
        "Mean Anomaly(deg)": -158.0554446908436,
        "RAAN(deg)": 329.9962195577423,
        "Satellite Name": "Test1 1464",
        "Satellite Number": 1464,
        "Semi-Major Axis(m)": 6980739.136638005,
        "Time(s)": 90
    },
    {
        "Altitude(m)": 609506.6651684903,
        "Argument of Periapsis(deg)": 0.0010418945913296407,
        "Eccentricity": 0.0,
        "Inclination(deg)": 60.0,
        "Latitude(deg)": -19.60360991596363,
        "Longitude(deg)": 61.4095052404184,
        "Mean Anomaly(deg)": -157.43533854538174,
        "RAAN(deg)": 329.99579950860254,
        "Satellite Name": "Test1 1464",
        "Satellite Number": 1464,
        "Semi-Major Axis(m)": 6980739.136638005,
        "Time(s)": 100
    },
    {
        "Altitude(m)": 609677.8974459791,
        "Argument of Periapsis(deg)": 0.0011460840504626045,
        "Eccentricity": 0.0,
        "Inclination(deg)": 60.0,
        "Latitude(deg)": -20.13111093831676,
        "Longitude(deg)": 61.71737800236761,
        "Mean Anomaly(deg)": -156.81523239991995,
        "RAAN(deg)": 329.99537945946287,
        "Satellite Name": "Test1 1464",
        "Satellite Number": 1464,
        "Semi-Major Axis(m)": 6980739.136638005,
        "Time(s)": 110
    },
    {
        "Altitude(m)": 609851.0279026162,
        "Argument of Periapsis(deg)": 0.0012502735095955685,
        "Eccentricity": 0.0,
        "Inclination(deg)": 60.0,
        "Latitude(deg)": -20.657866668787342,
        "Longitude(deg)": 62.02758684668974,
        "Mean Anomaly(deg)": -156.1951262544581,
        "RAAN(deg)": 329.9949594103231,
        "Satellite Name": "Test1 1464",
        "Satellite Number": 1464,
        "Semi-Major Axis(m)": 6980739.136638005,
        "Time(s)": 120
    },
    {
        "Altitude(m)": 610025.9975057322,
        "Argument of Periapsis(deg)": 0.0013544629687285324,
        "Eccentricity": 0.0,
        "Inclination(deg)": 60.0,
        "Latitude(deg)": -21.183851791990442,
        "Longitude(deg)": 62.34021197349098,
        "Mean Anomaly(deg)": -155.57502010899623,
        "RAAN(deg)": 329.99453936118334,
        "Satellite Name": "Test1 1464",
        "Satellite Number": 1464,
        "Semi-Major Axis(m)": 6980739.136638005,
        "Time(s)": 130
    },
    {
        "Altitude(m)": 610202.7462620881,
        "Argument of Periapsis(deg)": 0.0014586524278614966,
        "Eccentricity": 0.0,
        "Inclination(deg)": 60.0,
        "Latitude(deg)": -21.709040475536494,
        "Longitude(deg)": 62.65533457276562,
        "Mean Anomaly(deg)": -154.95491396353438,
        "RAAN(deg)": 329.99411931204355,
        "Satellite Name": "Test1 1464",
        "Satellite Number": 1464,
        "Semi-Major Axis(m)": 6980739.136638005,
        "Time(s)": 140
    },
    {
        "Altitude(m)": 610381.213244251,
        "Argument of Periapsis(deg)": 0.0015628418869944607,
        "Eccentricity": 0.0,
        "Inclination(deg)": 60.0,
        "Latitude(deg)": -22.233406348079743,
        "Longitude(deg)": 62.97303738190125,
        "Mean Anomaly(deg)": -154.3348078180726,
        "RAAN(deg)": 329.9936992629039,
        "Satellite Name": "Test1 1464",
        "Satellite Number": 1464,
        "Semi-Major Axis(m)": 6980739.136638005,
        "Time(s)": 150
    },
    {
        "Altitude(m)": 610561.336617439,
        "Argument of Periapsis(deg)": 0.0016670313461274247,
        "Eccentricity": 0.0,
        "Inclination(deg)": 60.0,
        "Latitude(deg)": -22.756922476622336,
        "Longitude(deg)": 63.29340524418964,
        "Mean Anomaly(deg)": -153.71470167261074,
        "RAAN(deg)": 329.99327921376414,
        "Satellite Name": "Test1 1464",
        "Satellite Number": 1464,
        "Semi-Major Axis(m)": 6980739.136638005,
        "Time(s)": 160
    },
    {
        "Altitude(m)": 610743.05366676,
        "Argument of Periapsis(deg)": 0.0017712208052603888,
        "Eccentricity": 0.0,
        "Inclination(deg)": 60.0,
        "Latitude(deg)": -23.27956134304404,
        "Longitude(deg)": 63.616524155474465,
        "Mean Anomaly(deg)": -153.09459552714887,
        "RAAN(deg)": 329.99285916462435,
        "Satellite Name": "Test1 1464",
        "Satellite Number": 1464,
        "Semi-Major Axis(m)": 6980739.136638005,
        "Time(s)": 170
    },
    {
        "Altitude(m)": 610926.3008248816,
        "Argument of Periapsis(deg)": 0.001875410264393353,
        "Eccentricity": 0.0,
        "Inclination(deg)": 60.0,
        "Latitude(deg)": -23.801294819823802,
        "Longitude(deg)": 63.942481824678104,
        "Mean Anomaly(deg)": -152.47448938168702,
        "RAAN(deg)": 329.9924391154846,
        "Satellite Name": "Test1 1464",
        "Satellite Number": 1464,
        "Semi-Major Axis(m)": 6980739.136638005,
        "Time(s)": 180
    },
    {
        "Altitude(m)": 611111.0137000672,
        "Argument of Periapsis(deg)": 0.0019795997235263173,
        "Eccentricity": 0.0,
        "Inclination(deg)": 60.0,
        "Latitude(deg)": -24.32209414492123,
        "Longitude(deg)": 64.27136823532923,
        "Mean Anomaly(deg)": -151.8543832362252,
        "RAAN(deg)": 329.99201906634494,
        "Satellite Name": "Test1 1464",
        "Satellite Number": 1464,
        "Semi-Major Axis(m)": 6980739.136638005,
        "Time(s)": 190
    }
]